[Satellite]
VERSION=1.1
NAME=GSAT-12
NICKNAME=GSAT-12
TLE1=1 37746U 11034A   15053.74035670 -.00000189  00000-0  00000+0 0  9990
TLE2=2 37746   0.0898 261.8629 0005152 221.0792  18.8582  1.00270257 13532
